CCSDS_OMM_VERS = 2.0
CREATION_DATE  = 
ORIGINATOR     = 

OBJECT_NAME    = STARLINK-37076
OBJECT_ID      = 2026-050G
CENTER_NAME    = EARTH
REF_FRAME      = TEME
TIME_SYSTEM    = UTC
MEAN_ELEMENT_THEORY = SGP/SGP4

EPOCH          = 2026-03-31T02:46:46.991424
MEAN_MOTION    = 15.80899101
ECCENTRICITY   = .0001569
INCLINATION    = 53.1586
RA_OF_ASC_NODE = 174.4101
ARG_OF_PERICENTER = 17.5340
MEAN_ANOMALY   = 342.5737

EPHEMERIS_TYPE = 0
CLASSIFICATION_TYPE = U
NORAD_CAT_ID   = 68173
ELEMENT_SET_NO = 999
REV_AT_EPOCH   = 386
BSTAR          = .40423E-3
MEAN_MOTION_DOT = .79923E-3
MEAN_MOTION_DDOT = 0

CCSDS_OMM_VERS = 2.0
CREATION_DATE  = 
ORIGINATOR     = 

OBJECT_NAME    = STARLINK-37078
OBJECT_ID      = 2026-050H
CENTER_NAME    = EARTH
REF_FRAME      = TEME
TIME_SYSTEM    = UTC
MEAN_ELEMENT_THEORY = SGP/SGP4

EPOCH          = 2026-03-31T02:45:42.135264
MEAN_MOTION    = 15.80921499
ECCENTRICITY   = .0001391
INCLINATION    = 53.1584
RA_OF_ASC_NODE = 174.4050
ARG_OF_PERICENTER = 17.1880
MEAN_ANOMALY   = 342.9189

EPHEMERIS_TYPE = 0
CLASSIFICATION_TYPE = U
NORAD_CAT_ID   = 68174
ELEMENT_SET_NO = 999
REV_AT_EPOCH   = 386
BSTAR          = .77183E-3
MEAN_MOTION_DOT = .15474E-2
MEAN_MOTION_DDOT = 0

CCSDS_OMM_VERS = 2.0
CREATION_DATE  = 
ORIGINATOR     = 

OBJECT_NAME    = STARLINK-36886
OBJECT_ID      = 2026-050J
CENTER_NAME    = EARTH
REF_FRAME      = TEME
TIME_SYSTEM    = UTC
MEAN_ELEMENT_THEORY = SGP/SGP4

EPOCH          = 2026-03-31T02:44:37.571136
MEAN_MOTION    = 15.80898949
ECCENTRICITY   = .000082
INCLINATION    = 53.1587
RA_OF_ASC_NODE = 174.3997
ARG_OF_PERICENTER = 8.2996
MEAN_ANOMALY   = 351.8040

EPHEMERIS_TYPE = 0
CLASSIFICATION_TYPE = U
NORAD_CAT_ID   = 68175
ELEMENT_SET_NO = 999
REV_AT_EPOCH   = 386
BSTAR          = .44772E-3
MEAN_MOTION_DOT = .88684E-3
MEAN_MOTION_DDOT = 0

CCSDS_OMM_VERS = 2.0
CREATION_DATE  = 
ORIGINATOR     = 

OBJECT_NAME    = STARLINK-36905
OBJECT_ID      = 2026-050K
CENTER_NAME    = EARTH
REF_FRAME      = TEME
TIME_SYSTEM    = UTC
MEAN_ELEMENT_THEORY = SGP/SGP4

EPOCH          = 2026-03-31T02:43:32.911104
MEAN_MOTION    = 15.80908031
ECCENTRICITY   = .0000712
INCLINATION    = 53.1584
RA_OF_ASC_NODE = 174.3950
ARG_OF_PERICENTER = 45.7578
MEAN_ANOMALY   = 314.3503

EPHEMERIS_TYPE = 0
CLASSIFICATION_TYPE = U
NORAD_CAT_ID   = 68176
ELEMENT_SET_NO = 999
REV_AT_EPOCH   = 386
BSTAR          = .66413E-3
MEAN_MOTION_DOT = .132623E-2
MEAN_MOTION_DDOT = 0

CCSDS_OMM_VERS = 2.0
CREATION_DATE  = 
ORIGINATOR     = 

OBJECT_NAME    = STARLINK-36668
OBJECT_ID      = 2026-050L
CENTER_NAME    = EARTH
REF_FRAME      = TEME
TIME_SYSTEM    = UTC
MEAN_ELEMENT_THEORY = SGP/SGP4

EPOCH          = 2026-03-31T02:42:27.687744
MEAN_MOTION    = 15.80888206
ECCENTRICITY   = .0001255
INCLINATION    = 53.1590
RA_OF_ASC_NODE = 174.3896
ARG_OF_PERICENTER = 24.1700
MEAN_ANOMALY   = 335.9381

EPHEMERIS_TYPE = 0
CLASSIFICATION_TYPE = U
NORAD_CAT_ID   = 68177
ELEMENT_SET_NO = 999
REV_AT_EPOCH   = 386
BSTAR          = .31688E-3
MEAN_MOTION_DOT = .62339E-3
MEAN_MOTION_DDOT = 0

CCSDS_OMM_VERS = 2.0
CREATION_DATE  = 
ORIGINATOR     = 

OBJECT_NAME    = STARLINK-36677
OBJECT_ID      = 2026-050M
CENTER_NAME    = EARTH
REF_FRAME      = TEME
TIME_SYSTEM    = UTC
MEAN_ELEMENT_THEORY = SGP/SGP4

EPOCH          = 2026-03-31T02:41:23.177184
MEAN_MOTION    = 15.80904798
ECCENTRICITY   = .0001117
INCLINATION    = 53.1590
RA_OF_ASC_NODE = 174.3842
ARG_OF_PERICENTER = 27.8962
MEAN_ANOMALY   = 332.2120

EPHEMERIS_TYPE = 0
CLASSIFICATION_TYPE = U
NORAD_CAT_ID   = 68178
ELEMENT_SET_NO = 999
REV_AT_EPOCH   = 386
BSTAR          = .46182E-3
MEAN_MOTION_DOT = .91556E-3
MEAN_MOTION_DDOT = 0

CCSDS_OMM_VERS = 2.0
CREATION_DATE  = 
ORIGINATOR     = 

OBJECT_NAME    = STARLINK-37052
OBJECT_ID      = 2026-050N
CENTER_NAME    = EARTH
REF_FRAME      = TEME
TIME_SYSTEM    = UTC
MEAN_ELEMENT_THEORY = SGP/SGP4

EPOCH          = 2026-03-31T02:40:18.255360
MEAN_MOTION    = 15.80915726
ECCENTRICITY   = .0001753
INCLINATION    = 53.1585
RA_OF_ASC_NODE = 174.3793
ARG_OF_PERICENTER = 10.6202
MEAN_ANOMALY   = 349.4857

EPHEMERIS_TYPE = 0
CLASSIFICATION_TYPE = U
NORAD_CAT_ID   = 68179
ELEMENT_SET_NO = 999
REV_AT_EPOCH   = 386
BSTAR          = .76679E-3
MEAN_MOTION_DOT = .153669E-2
MEAN_MOTION_DDOT = 0

CCSDS_OMM_VERS = 2.0
CREATION_DATE  = 
ORIGINATOR     = 

OBJECT_NAME    = STARLINK-37035
OBJECT_ID      = 2026-050P
CENTER_NAME    = EARTH
REF_FRAME      = TEME
TIME_SYSTEM    = UTC
MEAN_ELEMENT_THEORY = SGP/SGP4

EPOCH          = 2026-03-31T02:39:13.465728
MEAN_MOTION    = 15.80904808
ECCENTRICITY   = .0001299
INCLINATION    = 53.1590
RA_OF_ASC_NODE = 174.3750
ARG_OF_PERICENTER = 18.9135
MEAN_ANOMALY   = 341.1936

EPHEMERIS_TYPE = 0
CLASSIFICATION_TYPE = U
NORAD_CAT_ID   = 68180
ELEMENT_SET_NO = 999
REV_AT_EPOCH   = 386
BSTAR          = .56558E-3
MEAN_MOTION_DOT = .112559E-2
MEAN_MOTION_DDOT = 0

CCSDS_OMM_VERS = 2.0
CREATION_DATE  = 
ORIGINATOR     = 

OBJECT_NAME    = STARLINK-37032
OBJECT_ID      = 2026-050Q
CENTER_NAME    = EARTH
REF_FRAME      = TEME
TIME_SYSTEM    = UTC
MEAN_ELEMENT_THEORY = SGP/SGP4

EPOCH          = 2026-03-31T02:38:08.750400
MEAN_MOTION    = 15.80917933
ECCENTRICITY   = .0001207
INCLINATION    = 53.1590
RA_OF_ASC_NODE = 174.3695
ARG_OF_PERICENTER = 12.2681
MEAN_ANOMALY   = 347.8371

EPHEMERIS_TYPE = 0
CLASSIFICATION_TYPE = U
NORAD_CAT_ID   = 68181
ELEMENT_SET_NO = 999
REV_AT_EPOCH   = 386
BSTAR          = .80635E-3
MEAN_MOTION_DOT = .161799E-2
MEAN_MOTION_DDOT = 0

CCSDS_OMM_VERS = 2.0
CREATION_DATE  = 
ORIGINATOR     = 

OBJECT_NAME    = STARLINK-37082
OBJECT_ID      = 2026-050R
CENTER_NAME    = EARTH
REF_FRAME      = TEME
TIME_SYSTEM    = UTC
MEAN_ELEMENT_THEORY = SGP/SGP4

EPOCH          = 2026-03-31T02:37:03.761184
MEAN_MOTION    = 15.80900340
ECCENTRICITY   = .0001118
INCLINATION    = 53.1589
RA_OF_ASC_NODE = 174.3644
ARG_OF_PERICENTER = 23.6385
MEAN_ANOMALY   = 336.4689

EPHEMERIS_TYPE = 0
CLASSIFICATION_TYPE = U
NORAD_CAT_ID   = 68182
ELEMENT_SET_NO = 999
REV_AT_EPOCH   = 386
BSTAR          = .55604E-3
MEAN_MOTION_DOT = .110599E-2
MEAN_MOTION_DDOT = 0

CCSDS_OMM_VERS = 2.0
CREATION_DATE  = 
ORIGINATOR     = 

OBJECT_NAME    = STARLINK-37102
OBJECT_ID      = 2026-050S
CENTER_NAME    = EARTH
REF_FRAME      = TEME
TIME_SYSTEM    = UTC
MEAN_ELEMENT_THEORY = SGP/SGP4

EPOCH          = 2026-03-31T02:35:59.074368
MEAN_MOTION    = 15.80907655
ECCENTRICITY   = .0001296
INCLINATION    = 53.1589
RA_OF_ASC_NODE = 174.3592
ARG_OF_PERICENTER = 359.1953
MEAN_ANOMALY   = 0.9067

EPHEMERIS_TYPE = 0
CLASSIFICATION_TYPE = U
NORAD_CAT_ID   = 68183
ELEMENT_SET_NO = 999
REV_AT_EPOCH   = 386
BSTAR          = .71937E-3
MEAN_MOTION_DOT = .143901E-2
MEAN_MOTION_DDOT = 0

CCSDS_OMM_VERS = 2.0
CREATION_DATE  = 
ORIGINATOR     = 

OBJECT_NAME    = STARLINK-36964
OBJECT_ID      = 2026-050T
CENTER_NAME    = EARTH
REF_FRAME      = TEME
TIME_SYSTEM    = UTC
MEAN_ELEMENT_THEORY = SGP/SGP4

EPOCH          = 2026-03-31T04:05:56.394240
MEAN_MOTION    = 15.80879381
ECCENTRICITY   = .0001137
INCLINATION    = 53.1593
RA_OF_ASC_NODE = 174.0378
ARG_OF_PERICENTER = 39.8129
MEAN_ANOMALY   = 320.2977

EPHEMERIS_TYPE = 0
CLASSIFICATION_TYPE = U
NORAD_CAT_ID   = 68184
ELEMENT_SET_NO = 999
REV_AT_EPOCH   = 387
BSTAR          = .65904E-3
MEAN_MOTION_DOT = .131408E-2
MEAN_MOTION_DDOT = 0

