STARLINK-37076          
1 68173U 26050G   26090.11582166  .00079923  00000+0  40423-3 0  9990
2 68173  53.1586 174.4101 0001569  17.5340 342.5737 15.80899101  3864
STARLINK-37078          
1 68174U 26050H   26090.11507101  .00154740  00000+0  77183-3 0  9991
2 68174  53.1584 174.4050 0001391  17.1880 342.9189 15.80921499  3865
STARLINK-36886          
1 68175U 26050J   26090.11432374  .00088684  00000+0  44772-3 0  9992
2 68175  53.1587 174.3997 0000820   8.2996 351.8040 15.80898949  3861
STARLINK-36905          
1 68176U 26050K   26090.11357536  .00132623  00000+0  66413-3 0  9998
2 68176  53.1584 174.3950 0000712  45.7578 314.3503 15.80908031  3862
STARLINK-36668          
1 68177U 26050L   26090.11282046  .00062339  00000+0  31688-3 0  9994
2 68177  53.1590 174.3896 0001255  24.1700 335.9381 15.80888206  3864
STARLINK-36677          
1 68178U 26050M   26090.11207381  .00091556  00000+0  46182-3 0  9992
2 68178  53.1590 174.3842 0001117  27.8962 332.2120 15.80904798  3869
STARLINK-37052          
1 68179U 26050N   26090.11132240  .00153669  00000+0  76679-3 0  9992
2 68179  53.1585 174.3793 0001753  10.6202 349.4857 15.80915726  3862
STARLINK-37035          
1 68180U 26050P   26090.11057252  .00112559  00000+0  56558-3 0  9990
2 68180  53.1590 174.3750 0001299  18.9135 341.1936 15.80904808  3860
STARLINK-37032          
1 68181U 26050Q   26090.10982350  .00161799  00000+0  80635-3 0  9999
2 68181  53.1590 174.3695 0001207  12.2681 347.8371 15.80917933  3860
STARLINK-37082          
1 68182U 26050R   26090.10907131  .00110599  00000+0  55604-3 0  9994
2 68182  53.1589 174.3644 0001118  23.6385 336.4689 15.80900340  3861
STARLINK-37102          
1 68183U 26050S   26090.10832262  .00143901  00000+0  71937-3 0  9997
2 68183  53.1589 174.3592 0001296 359.1953   0.9067 15.80907655  3868
STARLINK-36964          
1 68184U 26050T   26090.17079160  .00131408  00000+0  65904-3 0  9991
2 68184  53.1593 174.0378 0001137  39.8129 320.2977 15.80879381  3877
